{
  "links" : {
    "next" : "https://api.nasa.gov/neo/rest/v1/feed?start_date=2014-02-23&end_date=2014-02-23&detailed=true&api_key=t0TVs3DtDT2H8Oy2Zy8m2eVrNsAVKAexjcZXUckd",
    "prev" : "https://api.nasa.gov/neo/rest/v1/feed?start_date=2014-02-21&end_date=2014-02-21&detailed=true&api_key=t0TVs3DtDT2H8Oy2Zy8m2eVrNsAVKAexjcZXUckd",
    "self" : "https://api.nasa.gov/neo/rest/v1/feed?start_date=2014-02-22&end_date=2014-02-22&detailed=true&api_key=t0TVs3DtDT2H8Oy2Zy8m2eVrNsAVKAexjcZXUckd"
  },
  "element_count" : 8,
  "near_earth_objects" : {
    "2014-02-22" : [ {
      "links" : {
        "self" : "https://api.nasa.gov/neo/rest/v1/neo/3600006?api_key=t0TVs3DtDT2H8Oy2Zy8m2eVrNsAVKAexjcZXUckd"
      },
      "neo_reference_id" : "3600006",
      "name" : "(2012 DY43)",
      "nasa_jpl_url" : "http://ssd.jpl.nasa.gov/sbdb.cgi?sstr=3600006",
      "absolute_magnitude_h" : 23.0,
      "estimated_diameter" : {
        "kilometers" : {
          "estimated_diameter_min" : 0.0667659413,
          "estimated_diameter_max" : 0.1492931834
        },
        "meters" : {
          "estimated_diameter_min" : 66.7659413495,
          "estimated_diameter_max" : 149.2931834393
        },
        "miles" : {
          "estimated_diameter_min" : 0.0414864197,
          "estimated_diameter_max" : 0.0927664547
        },
        "feet" : {
          "estimated_diameter_min" : 219.0483710172,
          "estimated_diameter_max" : 489.807047955
        }
      },
      "is_potentially_hazardous_asteroid" : false,
      "close_approach_data" : [ {
        "close_approach_date" : "2014-02-22",
        "epoch_date_close_approach" : 1393056000000,
        "relative_velocity" : {
          "kilometers_per_second" : "19.7997473641",
          "kilometers_per_hour" : "71279.0905106102",
          "miles_per_hour" : "44290.0548786622"
        },
        "miss_distance" : {
          "astronomical" : "0.0362272732",
          "lunar" : "14.0924100876",
          "kilometers" : "5419523",
          "miles" : "3367535.5"
        },
        "orbiting_body" : "Earth"
      } ],
      "orbital_data" : {
        "orbit_id" : "11",
        "orbit_determination_date" : "2017-04-06 08:50:44",
        "orbit_uncertainty" : "7",
        "minimum_orbit_intersection" : ".0359295",
        "jupiter_tisserand_invariant" : "4.097",
        "epoch_osculation" : "2458000.5",
        "eccentricity" : ".6416753668064545",
        "semi_major_axis" : "1.595602405037865",
        "inclination" : "10.38019729159601",
        "ascending_node_longitude" : "164.9871988744279",
        "orbital_period" : "736.1824334529824",
        "perihelion_distance" : ".571743646507932",
        "perihelion_argument" : "253.5614038556408",
        "aphelion_distance" : "2.619461163567798",
        "perihelion_time" : "2458133.356680539295",
        "mean_anomaly" : "295.031857837449",
        "mean_motion" : ".4890092233136558",
        "equinox" : "J2000"
      }
    }, {
      "links" : {
        "self" : "https://api.nasa.gov/neo/rest/v1/neo/3600563?api_key=t0TVs3DtDT2H8Oy2Zy8m2eVrNsAVKAexjcZXUckd"
      },
      "neo_reference_id" : "3600563",
      "name" : "(2012 EO3)",
      "nasa_jpl_url" : "http://ssd.jpl.nasa.gov/sbdb.cgi?sstr=3600563",
      "absolute_magnitude_h" : 23.0,
      "estimated_diameter" : {
        "kilometers" : {
          "estimated_diameter_min" : 0.0667659413,
          "estimated_diameter_max" : 0.1492931834
        },
        "meters" : {
          "estimated_diameter_min" : 66.7659413495,
          "estimated_diameter_max" : 149.2931834393
        },
        "miles" : {
          "estimated_diameter_min" : 0.0414864197,
          "estimated_diameter_max" : 0.0927664547
        },
        "feet" : {
          "estimated_diameter_min" : 219.0483710172,
          "estimated_diameter_max" : 489.807047955
        }
      },
      "is_potentially_hazardous_asteroid" : false,
      "close_approach_data" : [ {
        "close_approach_date" : "2014-02-22",
        "epoch_date_close_approach" : 1393056000000,
        "relative_velocity" : {
          "kilometers_per_second" : "18.453955072",
          "kilometers_per_hour" : "66434.2382592785",
          "miles_per_hour" : "41279.6521006056"
        },
        "miss_distance" : {
          "astronomical" : "0.3430166534",
          "lunar" : "133.4334716797",
          "kilometers" : "51314560",
          "miles" : "31885390"
        },
        "orbiting_body" : "Earth"
      } ],
      "orbital_data" : {
        "orbit_id" : "10",
        "orbit_determination_date" : "2017-04-06 08:50:37",
        "orbit_uncertainty" : "6",
        "minimum_orbit_intersection" : ".0614593",
        "jupiter_tisserand_invariant" : "7.297",
        "epoch_osculation" : "2458000.5",
        "eccentricity" : ".3563717537975913",
        "semi_major_axis" : ".7804257112751907",
        "inclination" : "29.51764056324188",
        "ascending_node_longitude" : "345.5102906537396",
        "orbital_period" : "251.8232242533907",
        "perihelion_distance" : ".5023040318393184",
        "perihelion_argument" : "352.2323639671159",
        "aphelion_distance" : "1.058547390711063",
        "perihelion_time" : "2458124.678750476154",
        "mean_anomaly" : "182.4772544154511",
        "mean_motion" : "1.429574262133024",
        "equinox" : "J2000"
      }
    }, {
      "links" : {
        "self" : "https://api.nasa.gov/neo/rest/v1/neo/3666411?api_key=t0TVs3DtDT2H8Oy2Zy8m2eVrNsAVKAexjcZXUckd"
      },
      "neo_reference_id" : "3666411",
      "name" : "(2014 EQ49)",
      "nasa_jpl_url" : "http://ssd.jpl.nasa.gov/sbdb.cgi?sstr=3666411",
      "absolute_magnitude_h" : 21.8,
      "estimated_diameter" : {
        "kilometers" : {
          "estimated_diameter_min" : 0.1160259082,
          "estimated_diameter_max" : 0.2594418179
        },
        "meters" : {
          "estimated_diameter_min" : 116.0259082094,
          "estimated_diameter_max" : 259.4418179074
        },
        "miles" : {
          "estimated_diameter_min" : 0.0720951346,
          "estimated_diameter_max" : 0.1612096218
        },
        "feet" : {
          "estimated_diameter_min" : 380.6624406898,
          "estimated_diameter_max" : 851.1870938635
        }
      },
      "is_potentially_hazardous_asteroid" : true,
      "close_approach_data" : [ {
        "close_approach_date" : "2014-02-22",
        "epoch_date_close_approach" : 1393056000000,
        "relative_velocity" : {
          "kilometers_per_second" : "16.6370092214",
          "kilometers_per_hour" : "59893.2331968625",
          "miles_per_hour" : "37215.3259272394"
        },
        "miss_distance" : {
          "astronomical" : "0.4161469434",
          "lunar" : "161.8811645508",
          "kilometers" : "62254696",
          "miles" : "38683276"
        },
        "orbiting_body" : "Earth"
      } ],
      "orbital_data" : {
        "orbit_id" : "9",
        "orbit_determination_date" : "2017-04-06 08:42:02",
        "orbit_uncertainty" : "7",
        "minimum_orbit_intersection" : ".0262721",
        "jupiter_tisserand_invariant" : "5.421",
        "epoch_osculation" : "2458000.5",
        "eccentricity" : ".2066801262877156",
        "semi_major_axis" : "1.147612889990363",
        "inclination" : "15.16990873187237",
        "ascending_node_longitude" : "11.54639792281144",
        "orbital_period" : "449.0467456157741",
        "perihelion_distance" : ".9104241129577449",
        "perihelion_argument" : "50.43508187215381",
        "aphelion_distance" : "1.384801667022982",
        "perihelion_time" : "2457996.196627773710",
        "mean_anomaly" : "3.450006077518633",
        "mean_motion" : ".8016982719835436",
        "equinox" : "J2000"
      }
    } ]
  }
}